start=new Date('2023-03-10T00:00:00.000Z').valueOf();
sats=[{"APOAPSIS":"547.974","OBJECT_NAME":"STARLINK-1305","EPHEMERIS_TYPE":"0","FILE":"3855951","MEAN_MOTION":"15.06413233","BSTAR":"0.00050905000000","EPOCH":"2023-03-09T05:44:42.217728","PERIAPSIS":"546.372","CLASSIFICATION_TYPE":"U","TIME_SYSTEM":"UTC","INCLINATION":"53.0557","SEMIMAJOR_AXIS":"6925.308","TLE_LINE1":"1 45377U 20019T   23068.23937752  .00007312  00000-0  50905-3 0  9990","SITE":"AFETR","ECCENTRICITY":"0.00011560","TLE_LINE2":"2 45377  53.0557  48.7689 0001156  97.0900 263.0221 15.06413233164479","GP_ID":"227765152","REF_FRAME":"TEME","OBJECT_TYPE":"PAYLOAD","ELEMENT_SET_NO":"999","MEAN_MOTION_DDOT":"0.0000000000000","NORAD_CAT_ID":"45377","DECAY_DATE":null,"CENTER_NAME":"EARTH","ARG_OF_PERICENTER":"97.0900","MEAN_ANOMALY":"263.0221","OBJECT_ID":"2020-019T","PERIOD":"95.591","MEAN_ELEMENT_THEORY":"SGP4","COUNTRY_CODE":"US","REV_AT_EPOCH":"16447","LAUNCH_DATE":"2020-03-18","RA_OF_ASC_NODE":"48.7689","MEAN_MOTION_DOT":"0.00007312","RCS_SIZE":"LARGE"},{"PERIOD":"95.591","MEAN_ELEMENT_THEORY":"SGP4","REV_AT_EPOCH":"16457","LAUNCH_DATE":"2020-03-18","COUNTRY_CODE":"US","RCS_SIZE":"LARGE","RA_OF_ASC_NODE":"45.8420","MEAN_MOTION_DOT":"0.00026152","DECAY_DATE":null,"ELEMENT_SET_NO":"999","MEAN_MOTION_DDOT":"0.0000000000000","NORAD_CAT_ID":"45378","MEAN_ANOMALY":"217.6129","CENTER_NAME":"EARTH","ARG_OF_PERICENTER":"142.5012","OBJECT_ID":"2020-019U","ECCENTRICITY":"0.00021660","SITE":"AFETR","SEMIMAJOR_AXIS":"6925.286","TLE_LINE1":"1 45378U 20019U   23068.89178836  .00026152  00000-0  17671-2 0  9998","REF_FRAME":"TEME","GP_ID":"227765906","TLE_LINE2":"2 45378  53.0553  45.8420 0002166 142.5012 217.6129 15.06420431164570","OBJECT_TYPE":"PAYLOAD","OBJECT_NAME":"STARLINK-1310","APOAPSIS":"548.651","EPHEMERIS_TYPE":"0","FILE":"3855951","MEAN_MOTION":"15.06420431","EPOCH":"2023-03-09T21:24:10.514304","PERIAPSIS":"545.651","BSTAR":"0.00176710000000","INCLINATION":"53.0553","CLASSIFICATION_TYPE":"U","TIME_SYSTEM":"UTC"},{"ELEMENT_SET_NO":"999","MEAN_MOTION_DDOT":"0.0000000000000","NORAD_CAT_ID":"45379","DECAY_DATE":null,"CENTER_NAME":"EARTH","ARG_OF_PERICENTER":"100.0386","MEAN_ANOMALY":"260.0769","OBJECT_ID":"2020-019V","PERIOD":"95.591","MEAN_ELEMENT_THEORY":"SGP4","COUNTRY_CODE":"US","REV_AT_EPOCH":"16447","LAUNCH_DATE":"2020-03-18","RA_OF_ASC_NODE":"48.8063","MEAN_MOTION_DOT":"0.00029912","RCS_SIZE":"LARGE","APOAPSIS":"548.195","OBJECT_NAME":"STARLINK-1319","EPHEMERIS_TYPE":"0","MEAN_MOTION":"15.06412264","FILE":"3855951","BSTAR":"0.00201780000000","PERIAPSIS":"546.157","EPOCH":"2023-03-09T05:34:05.759040","CLASSIFICATION_TYPE":"U","TIME_SYSTEM":"UTC","INCLINATION":"53.0552","SEMIMAJOR_AXIS":"6925.311","TLE_LINE1":"1 45379U 20019V   23068.23201110  .00029912  00000-0  20178-2 0  9992","ECCENTRICITY":"0.00014710","SITE":"AFETR","GP_ID":"227764658","TLE_LINE2":"2 45379  53.0552  48.8063 0001471 100.0386 260.0769 15.06412264164473","REF_FRAME":"TEME","OBJECT_TYPE":"PAYLOAD"},{"EPHEMERIS_TYPE":"0","FILE":"3855951","MEAN_MOTION":"15.06420331","OBJECT_NAME":"STARLINK-1207","APOAPSIS":"548.540","INCLINATION":"53.0554","TIME_SYSTEM":"UTC","CLASSIFICATION_TYPE":"U","PERIAPSIS":"545.762","EPOCH":"2023-03-09T21:26:49.749504","BSTAR":"0.00126570000000","ECCENTRICITY":"0.00020060","SITE":"AFETR","TLE_LINE1":"1 45380U 20019W   23068.89363136  .00018632  00000-0  12657-2 0  9993","SEMIMAJOR_AXIS":"6925.286","OBJECT_TYPE":"PAYLOAD","REF_FRAME":"TEME","GP_ID":"227764907","TLE_LINE2":"2 45380  53.0554  25.8384 0002006  94.0724 266.0494 15.06420331164847","DECAY_DATE":null,"ELEMENT_SET_NO":"999","NORAD_CAT_ID":"45380","MEAN_MOTION_DDOT":"0.0000000000000","OBJECT_ID":"2020-019W","MEAN_ANOMALY":"266.0494","CENTER_NAME":"EARTH","ARG_OF_PERICENTER":"94.0724","LAUNCH_DATE":"2020-03-18","REV_AT_EPOCH":"16484","COUNTRY_CODE":"US","PERIOD":"95.591","MEAN_ELEMENT_THEORY":"SGP4","RCS_SIZE":"LARGE","RA_OF_ASC_NODE":"25.8384","MEAN_MOTION_DOT":"0.00018632"},{"EPHEMERIS_TYPE":"0","FILE":"3855951","MEAN_MOTION":"15.06406123","OBJECT_NAME":"STARLINK-1258","APOAPSIS":"548.175","INCLINATION":"53.0548","TIME_SYSTEM":"UTC","CLASSIFICATION_TYPE":"U","EPOCH":"2023-03-09T21:42:45.147744","PERIAPSIS":"546.214","BSTAR":"0.00021216000000","SITE":"AFETR","ECCENTRICITY":"0.00014160","TLE_LINE1":"1 45381U 20019X   23068.90468921  .00002881  00000-0  21216-3 0  9995","SEMIMAJOR_AXIS":"6925.330","OBJECT_TYPE":"PAYLOAD","REF_FRAME":"TEME","TLE_LINE2":"2 45381  53.0548  25.7930 0001416  87.8133 272.3018 15.06406123164840","GP_ID":"227765653","DECAY_DATE":null,"ELEMENT_SET_NO":"999","NORAD_CAT_ID":"45381","MEAN_MOTION_DDOT":"0.0000000000000","OBJECT_ID":"2020-019X","MEAN_ANOMALY":"272.3018","CENTER_NAME":"EARTH","ARG_OF_PERICENTER":"87.8133","LAUNCH_DATE":"2020-03-18","REV_AT_EPOCH":"16484","COUNTRY_CODE":"US","PERIOD":"95.592","MEAN_ELEMENT_THEORY":"SGP4","RCS_SIZE":"LARGE","RA_OF_ASC_NODE":"25.7930","MEAN_MOTION_DOT":"0.00002881"},{"RCS_SIZE":"LARGE","MEAN_MOTION_DOT":"0.00068896","RA_OF_ASC_NODE":"20.9364","MEAN_ELEMENT_THEORY":"SGP4","PERIOD":"94.974","LAUNCH_DATE":"2020-03-18","REV_AT_EPOCH":"16473","COUNTRY_CODE":"US","MEAN_ANOMALY":"249.8572","CENTER_NAME":"EARTH","ARG_OF_PERICENTER":"110.2910","OBJECT_ID":"2020-019Y","DECAY_DATE":null,"MEAN_MOTION_DDOT":"0.0000000000000","NORAD_CAT_ID":"45382","ELEMENT_SET_NO":"999","REF_FRAME":"TEME","TLE_LINE2":"2 45382  53.0514  20.9364 0004546 110.2910 249.8572 15.16205087164732","GP_ID":"227765407","OBJECT_TYPE":"PAYLOAD","ECCENTRICITY":"0.00045460","SITE":"AFETR","SEMIMAJOR_AXIS":"6895.459","TLE_LINE1":"1 45382U 20019Y   23068.87865141  .00068896  00000-0  35055-2 0  9990","PERIAPSIS":"514.190","EPOCH":"2023-03-09T21:05:15.481824","BSTAR":"0.00350550000000","INCLINATION":"53.0514","TIME_SYSTEM":"UTC","CLASSIFICATION_TYPE":"U","OBJECT_NAME":"STARLINK-1264","APOAPSIS":"520.459","FILE":"3855951","MEAN_MOTION":"15.16205087","EPHEMERIS_TYPE":"0"},{"FILE":"3855951","MEAN_MOTION":"15.06431884","EPHEMERIS_TYPE":"0","APOAPSIS":"548.241","OBJECT_NAME":"STARLINK-1266","CLASSIFICATION_TYPE":"U","TIME_SYSTEM":"UTC","INCLINATION":"53.0547","BSTAR":"0.00190110000000","EPOCH":"2023-03-09T21:32:08.112768","PERIAPSIS":"545.991","SEMIMAJOR_AXIS":"6925.251","TLE_LINE1":"1 45383U 20019Z   23068.89731612  .00028173  00000-0  19011-2 0  9996","SITE":"AFETR","ECCENTRICITY":"0.00016240","OBJECT_TYPE":"PAYLOAD","GP_ID":"227764158","TLE_LINE2":"2 45383  53.0547  25.8250 0001624 110.7326 249.3837 15.06431884164843","REF_FRAME":"TEME","MEAN_MOTION_DDOT":"0.0000000000000","NORAD_CAT_ID":"45383","ELEMENT_SET_NO":"999","DECAY_DATE":null,"OBJECT_ID":"2020-019Z","ARG_OF_PERICENTER":"110.7326","CENTER_NAME":"EARTH","MEAN_ANOMALY":"249.3837","COUNTRY_CODE":"US","LAUNCH_DATE":"2020-03-18","REV_AT_EPOCH":"16484","MEAN_ELEMENT_THEORY":"SGP4","PERIOD":"95.590","RA_OF_ASC_NODE":"25.8250","MEAN_MOTION_DOT":"0.00028173","RCS_SIZE":"LARGE"},{"ARG_OF_PERICENTER":"90.0383","CENTER_NAME":"EARTH","MEAN_ANOMALY":"270.0759","OBJECT_ID":"2020-019AA","NORAD_CAT_ID":"45384","MEAN_MOTION_DDOT":"0.0000000000000","ELEMENT_SET_NO":"999","DECAY_DATE":null,"RA_OF_ASC_NODE":"29.1437","MEAN_MOTION_DOT":"0.00014504","RCS_SIZE":"LARGE","MEAN_ELEMENT_THEORY":"SGP4","PERIOD":"95.591","COUNTRY_CODE":"US","REV_AT_EPOCH":"16473","LAUNCH_DATE":"2020-03-18","BSTAR":"0.00099019000000","PERIAPSIS":"546.245","EPOCH":"2023-03-09T03:43:55.433280","CLASSIFICATION_TYPE":"U","TIME_SYSTEM":"UTC","INCLINATION":"53.0538","APOAPSIS":"548.094","OBJECT_NAME":"STARLINK-1267","FILE":"3855951","MEAN_MOTION":"15.06414436","EPHEMERIS_TYPE":"0","TLE_LINE2":"2 45384  53.0538  29.1437 0001335  90.0383 270.0759 15.06414436164736","GP_ID":"227764407","REF_FRAME":"TEME","OBJECT_TYPE":"PAYLOAD","TLE_LINE1":"1 45384U 20019AA  23068.15550270  .00014504  00000-0  99019-3 0  9995","SEMIMAJOR_AXIS":"6925.304","SITE":"AFETR","ECCENTRICITY":"0.00013350"},{"MEAN_MOTION_DOT":"0.00018929","RA_OF_ASC_NODE":"29.1239","RCS_SIZE":"LARGE","COUNTRY_CODE":"US","REV_AT_EPOCH":"16473","LAUNCH_DATE":"2020-03-18","MEAN_ELEMENT_THEORY":"SGP4","PERIOD":"95.591","OBJECT_ID":"2020-019AC","ARG_OF_PERICENTER":"112.9500","CENTER_NAME":"EARTH","MEAN_ANOMALY":"247.1650","NORAD_CAT_ID":"45386","MEAN_MOTION_DDOT":"0.0000000000000","ELEMENT_SET_NO":"999","DECAY_DATE":null,"OBJECT_TYPE":"PAYLOAD","TLE_LINE2":"2 45386  53.0562  29.1239 0001531 112.9500 247.1650 15.06425392164736","GP_ID":"227765153","REF_FRAME":"TEME","SEMIMAJOR_AXIS":"6925.271","TLE_LINE1":"1 45386U 20019AC  23068.16013033  .00018929  00000-0  12854-2 0  9995","SITE":"AFETR","ECCENTRICITY":"0.00015310","TIME_SYSTEM":"UTC","CLASSIFICATION_TYPE":"U","INCLINATION":"53.0562","BSTAR":"0.00128540000000","PERIAPSIS":"546.075","EPOCH":"2023-03-09T03:50:35.260512","MEAN_MOTION":"15.06425392","FILE":"3855951","EPHEMERIS_TYPE":"0","APOAPSIS":"548.196","OBJECT_NAME":"STARLINK-1272"},{"BSTAR":"0.00071993000000","PERIAPSIS":"546.328","EPOCH":"2023-03-09T21:53:22.298496","CLASSIFICATION_TYPE":"U","TIME_SYSTEM":"UTC","INCLINATION":"53.0554","APOAPSIS":"548.088","OBJECT_NAME":"STARLINK-1274","EPHEMERIS_TYPE":"0","MEAN_MOTION":"15.06401793","FILE":"3855951","GP_ID":"227765907","TLE_LINE2":"2 45387  53.0554  25.7528 0001271  88.4873 271.6262 15.06401793164844","REF_FRAME":"TEME","OBJECT_TYPE":"PAYLOAD","SEMIMAJOR_AXIS":"6925.343","TLE_LINE1":"1 45387U 20019AD  23068.91206364  .00010459  00000-0  71993-3 0  9990","ECCENTRICITY":"0.00012710","SITE":"AFETR","ARG_OF_PERICENTER":"88.4873","CENTER_NAME":"EARTH","MEAN_ANOMALY":"271.6262","OBJECT_ID":"2020-019AD","ELEMENT_SET_NO":"999","NORAD_CAT_ID":"45387","MEAN_MOTION_DDOT":"0.0000000000000","DECAY_DATE":null,"RA_OF_ASC_NODE":"25.7528","MEAN_MOTION_DOT":"0.00010459","RCS_SIZE":"LARGE","PERIOD":"95.592","MEAN_ELEMENT_THEORY":"SGP4","COUNTRY_CODE":"US","LAUNCH_DATE":"2020-03-18","REV_AT_EPOCH":"16484"}];
